start=new Date('2021-11-20T00:00:00.000Z').valueOf();
sats=[{"ECCENTRICITY":"0.00010480","OBJECT_TYPE":"PAYLOAD","REF_FRAME":"TEME","MEAN_MOTION":"15.06399102","MEAN_ELEMENT_THEORY":"SGP4","MEAN_MOTION_DDOT":"0.0000000000000","EPOCH":"2021-11-19T12:27:55.461888","PERIOD":"95.592","GP_ID":"190076564","PERIAPSIS":"546.491","TLE_LINE2":"2 48448  53.0580  34.8635 0001048  72.3065 287.8038 15.06399102 29818","RCS_SIZE":"LARGE","DECAY_DATE":null,"OBJECT_ID":"2021-040W","ARG_OF_PERICENTER":"72.3065","REV_AT_EPOCH":"2981","FILE":"3219209","LAUNCH_DATE":"2021-05-09","COUNTRY_CODE":"US","MEAN_ANOMALY":"287.8038","EPHEMERIS_TYPE":"0","BSTAR":"0.00004328100000","CENTER_NAME":"EARTH","SITE":"AFETR","TLE_LINE1":"1 48448U 21040W   21323.51939192  .00000363  00000-0  43281-4 0  9999","INCLINATION":"53.0580","NORAD_CAT_ID":"48448","SEMIMAJOR_AXIS":"6925.351","ELEMENT_SET_NO":"999","TIME_SYSTEM":"UTC","APOAPSIS":"547.942","CLASSIFICATION_TYPE":"U","OBJECT_NAME":"STARLINK-2632","RA_OF_ASC_NODE":"34.8635","MEAN_MOTION_DOT":"0.00000363"},{"BSTAR":"-0.00008321700000","EPHEMERIS_TYPE":"0","COUNTRY_CODE":"US","LAUNCH_DATE":"2021-05-09","MEAN_ANOMALY":"279.5209","FILE":"3219209","REV_AT_EPOCH":"2981","ARG_OF_PERICENTER":"80.5922","OBJECT_ID":"2021-040X","INCLINATION":"53.0578","TLE_LINE1":"1 48449U 21040X   21323.49085581 -.00001520  00000-0 -83217-4 0  9992","SITE":"AFETR","CENTER_NAME":"EARTH","TIME_SYSTEM":"UTC","ELEMENT_SET_NO":"999","SEMIMAJOR_AXIS":"6925.370","NORAD_CAT_ID":"48449","MEAN_MOTION_DOT":"-0.00001520","RA_OF_ASC_NODE":"34.9937","OBJECT_NAME":"STARLINK-2655","APOAPSIS":"548.105","CLASSIFICATION_TYPE":"U","ECCENTRICITY":"0.00012550","GP_ID":"190076438","PERIOD":"95.593","EPOCH":"2021-11-19T11:46:49.941984","MEAN_MOTION_DDOT":"0.0000000000000","MEAN_ELEMENT_THEORY":"SGP4","MEAN_MOTION":"15.06392866","REF_FRAME":"TEME","OBJECT_TYPE":"PAYLOAD","PERIAPSIS":"546.366","TLE_LINE2":"2 48449  53.0578  34.9937 0001255  80.5922 279.5209 15.06392866 29813","DECAY_DATE":null,"RCS_SIZE":"LARGE"},{"OBJECT_NAME":"STARLINK-2660","CLASSIFICATION_TYPE":"U","APOAPSIS":"548.212","RA_OF_ASC_NODE":"35.0072","MEAN_MOTION_DOT":"0.00000463","SEMIMAJOR_AXIS":"6925.363","NORAD_CAT_ID":"48450","ELEMENT_SET_NO":"999","TIME_SYSTEM":"UTC","CENTER_NAME":"EARTH","INCLINATION":"53.0573","SITE":"AFETR","TLE_LINE1":"1 48450U 21040Y   21323.48716775  .00000463  00000-0  49952-4 0  9990","REV_AT_EPOCH":"2981","FILE":"3219209","OBJECT_ID":"2021-040Y","ARG_OF_PERICENTER":"75.0300","LAUNCH_DATE":"2021-05-09","MEAN_ANOMALY":"285.0847","COUNTRY_CODE":"US","EPHEMERIS_TYPE":"0","BSTAR":"0.00004995200000","RCS_SIZE":"LARGE","DECAY_DATE":null,"TLE_LINE2":"2 48450  53.0573  35.0072 0001421  75.0300 285.0847 15.06395368 29816","PERIAPSIS":"546.244","MEAN_MOTION_DDOT":"0.0000000000000","EPOCH":"2021-11-19T11:41:31.293600","OBJECT_TYPE":"PAYLOAD","MEAN_ELEMENT_THEORY":"SGP4","MEAN_MOTION":"15.06395368","REF_FRAME":"TEME","GP_ID":"190076693","PERIOD":"95.592","ECCENTRICITY":"0.00014210"},{"TLE_LINE2":"2 48451  53.0566  35.0269 0003945  66.2316 293.9087 15.06082392 29813","PERIAPSIS":"545.455","RCS_SIZE":"LARGE","DECAY_DATE":null,"ECCENTRICITY":"0.00039450","EPOCH":"2021-11-19T11:36:35.989632","MEAN_MOTION_DDOT":"0.0000000000000","MEAN_ELEMENT_THEORY":"SGP4","MEAN_MOTION":"15.06082392","REF_FRAME":"TEME","OBJECT_TYPE":"PAYLOAD","GP_ID":"190075996","PERIOD":"95.612","SEMIMAJOR_AXIS":"6926.322","NORAD_CAT_ID":"48451","TIME_SYSTEM":"UTC","ELEMENT_SET_NO":"999","OBJECT_NAME":"STARLINK-2652","APOAPSIS":"550.920","CLASSIFICATION_TYPE":"U","MEAN_MOTION_DOT":"-0.00041682","RA_OF_ASC_NODE":"35.0269","FILE":"3219209","REV_AT_EPOCH":"2981","ARG_OF_PERICENTER":"66.2316","OBJECT_ID":"2021-040Z","EPHEMERIS_TYPE":"0","BSTAR":"-0.00281940000000","LAUNCH_DATE":"2021-05-09","COUNTRY_CODE":"US","MEAN_ANOMALY":"293.9087","CENTER_NAME":"EARTH","INCLINATION":"53.0566","TLE_LINE1":"1 48451U 21040Z   21323.48374988 -.00041682  00000-0 -28194-2 0  9990","SITE":"AFETR"},{"SITE":"AFETR","TLE_LINE1":"1 48452U 21040AA  21323.48621331  .00000641  00000-0  61906-4 0  9996","INCLINATION":"53.0573","CENTER_NAME":"EARTH","COUNTRY_CODE":"US","LAUNCH_DATE":"2021-05-09","MEAN_ANOMALY":"281.0549","EPHEMERIS_TYPE":"0","BSTAR":"0.00006190600000","OBJECT_ID":"2021-040AA","ARG_OF_PERICENTER":"79.0583","REV_AT_EPOCH":"2981","FILE":"3219209","RA_OF_ASC_NODE":"35.0124","MEAN_MOTION_DOT":"0.00000641","CLASSIFICATION_TYPE":"U","APOAPSIS":"548.086","OBJECT_NAME":"STARLINK-2703","ELEMENT_SET_NO":"999","TIME_SYSTEM":"UTC","SEMIMAJOR_AXIS":"6925.338","NORAD_CAT_ID":"48452","PERIOD":"95.592","GP_ID":"190076249","OBJECT_TYPE":"PAYLOAD","MEAN_ELEMENT_THEORY":"SGP4","MEAN_MOTION":"15.06403472","REF_FRAME":"TEME","MEAN_MOTION_DDOT":"0.0000000000000","EPOCH":"2021-11-19T11:40:08.829984","ECCENTRICITY":"0.00012750","DECAY_DATE":null,"RCS_SIZE":"LARGE","TLE_LINE2":"2 48452  53.0573  35.0124 0001275  79.0583 281.0549 15.06403472 29811","PERIAPSIS":"546.320"},{"DECAY_DATE":null,"RCS_SIZE":"LARGE","TLE_LINE2":"2 48453  53.0566  35.0410 0001262  56.5263 303.5846 15.06397697 29814","PERIAPSIS":"546.347","GP_ID":"190076123","PERIOD":"95.592","EPOCH":"2021-11-19T11:30:53.871552","MEAN_MOTION_DDOT":"0.0000000000000","REF_FRAME":"TEME","MEAN_MOTION":"15.06397697","MEAN_ELEMENT_THEORY":"SGP4","OBJECT_TYPE":"PAYLOAD","ECCENTRICITY":"0.00012620","MEAN_MOTION_DOT":"-0.00000489","RA_OF_ASC_NODE":"35.0410","OBJECT_NAME":"STARLINK-2620","APOAPSIS":"548.095","CLASSIFICATION_TYPE":"U","TIME_SYSTEM":"UTC","ELEMENT_SET_NO":"999","SEMIMAJOR_AXIS":"6925.356","NORAD_CAT_ID":"48453","INCLINATION":"53.0566","TLE_LINE1":"1 48453U 21040AB  21323.47979018 -.00000489  00000-0 -13952-4 0  9994","SITE":"AFETR","CENTER_NAME":"EARTH","BSTAR":"-0.00001395200000","EPHEMERIS_TYPE":"0","LAUNCH_DATE":"2021-05-09","COUNTRY_CODE":"US","MEAN_ANOMALY":"303.5846","FILE":"3219209","REV_AT_EPOCH":"2981","ARG_OF_PERICENTER":"56.5263","OBJECT_ID":"2021-040AB"},{"PERIOD":"95.593","GP_ID":"190076882","OBJECT_TYPE":"PAYLOAD","MEAN_MOTION":"15.06385858","REF_FRAME":"TEME","MEAN_ELEMENT_THEORY":"SGP4","MEAN_MOTION_DDOT":"0.0000000000000","EPOCH":"2021-11-19T11:25:36.129504","ECCENTRICITY":"0.00014860","DECAY_DATE":null,"RCS_SIZE":"LARGE","TLE_LINE2":"2 48454  53.0576  35.0585 0001486  58.6929 301.4205 15.06385858 29811","PERIAPSIS":"546.228","SITE":"AFETR","TLE_LINE1":"1 48454U 21040AC  21323.47611261 -.00000378  00000-0 -65139-5 0  9990","INCLINATION":"53.0576","CENTER_NAME":"EARTH","LAUNCH_DATE":"2021-05-09","COUNTRY_CODE":"US","MEAN_ANOMALY":"301.4205","BSTAR":"-0.00000651390000","EPHEMERIS_TYPE":"0","OBJECT_ID":"2021-040AC","ARG_OF_PERICENTER":"58.6929","REV_AT_EPOCH":"2981","FILE":"3219209","RA_OF_ASC_NODE":"35.0585","MEAN_MOTION_DOT":"-0.00000378","APOAPSIS":"548.286","CLASSIFICATION_TYPE":"U","OBJECT_NAME":"STARLINK-2654","ELEMENT_SET_NO":"999","TIME_SYSTEM":"UTC","NORAD_CAT_ID":"48454","SEMIMAJOR_AXIS":"6925.392"},{"SEMIMAJOR_AXIS":"6925.406","NORAD_CAT_ID":"48455","ELEMENT_SET_NO":"999","TIME_SYSTEM":"UTC","OBJECT_NAME":"STARLINK-2497","APOAPSIS":"548.202","CLASSIFICATION_TYPE":"U","RA_OF_ASC_NODE":"35.0803","MEAN_MOTION_DOT":"-0.00001947","REV_AT_EPOCH":"2980","FILE":"3219209","OBJECT_ID":"2021-040AD","ARG_OF_PERICENTER":"77.6366","COUNTRY_CODE":"US","LAUNCH_DATE":"2021-05-09","MEAN_ANOMALY":"282.4774","BSTAR":"-0.00011194000000","EPHEMERIS_TYPE":"0","CENTER_NAME":"EARTH","INCLINATION":"53.0558","SITE":"AFETR","TLE_LINE1":"1 48455U 21040AD  21323.47244290 -.00001947  00000-0 -11194-3 0  9998","PERIAPSIS":"546.339","TLE_LINE2":"2 48455  53.0558  35.0803 0001345  77.6366 282.4774 15.06381352 29808","RCS_SIZE":"LARGE","DECAY_DATE":null,"ECCENTRICITY":"0.00013450","MEAN_MOTION_DDOT":"0.0000000000000","EPOCH":"2021-11-19T11:20:19.066560","OBJECT_TYPE":"PAYLOAD","MEAN_MOTION":"15.06381352","MEAN_ELEMENT_THEORY":"SGP4","REF_FRAME":"TEME","GP_ID":"190076312","PERIOD":"95.593"},{"ECCENTRICITY":"0.00012740","PERIOD":"95.593","GP_ID":"190076565","OBJECT_TYPE":"PAYLOAD","MEAN_MOTION":"15.06385017","REF_FRAME":"TEME","MEAN_ELEMENT_THEORY":"SGP4","MEAN_MOTION_DDOT":"0.0000000000000","EPOCH":"2021-11-19T11:14:59.010720","PERIAPSIS":"546.377","TLE_LINE2":"2 48456  53.0566  35.1011 0001274  83.8947 276.2187 15.06385017 29806","DECAY_DATE":null,"RCS_SIZE":"LARGE","LAUNCH_DATE":"2021-05-09","COUNTRY_CODE":"US","MEAN_ANOMALY":"276.2187","BSTAR":"-0.00003330700000","EPHEMERIS_TYPE":"0","OBJECT_ID":"2021-040AE","ARG_OF_PERICENTER":"83.8947","REV_AT_EPOCH":"2980","FILE":"3219209","SITE":"AFETR","TLE_LINE1":"1 48456U 21040AE  21323.46873855 -.00000777  00000-0 -33307-4 0  9994","INCLINATION":"53.0566","CENTER_NAME":"EARTH","ELEMENT_SET_NO":"999","TIME_SYSTEM":"UTC","SEMIMAJOR_AXIS":"6925.394","NORAD_CAT_ID":"48456","RA_OF_ASC_NODE":"35.1011","MEAN_MOTION_DOT":"-0.00000777","CLASSIFICATION_TYPE":"U","APOAPSIS":"548.142","OBJECT_NAME":"STARLINK-2508"},{"MEAN_MOTION_DOT":"-0.00000280","RA_OF_ASC_NODE":"40.0746","CLASSIFICATION_TYPE":"U","APOAPSIS":"548.151","OBJECT_NAME":"STARLINK-2698","TIME_SYSTEM":"UTC","ELEMENT_SET_NO":"999","NORAD_CAT_ID":"48458","SEMIMAJOR_AXIS":"6925.397","TLE_LINE1":"1 48458U 21040AG  21323.47286640 -.00000280  00000-0  10731-6 0  9993","SITE":"AFETR","INCLINATION":"53.0572","CENTER_NAME":"EARTH","EPHEMERIS_TYPE":"0","BSTAR":"0.00000010731000","LAUNCH_DATE":"2021-05-09","COUNTRY_CODE":"US","MEAN_ANOMALY":"293.5559","ARG_OF_PERICENTER":"66.5565","OBJECT_ID":"2021-040AG","FILE":"3219209","REV_AT_EPOCH":"3045","DECAY_DATE":null,"RCS_SIZE":"LARGE","TLE_LINE2":"2 48458  53.0572  40.0746 0001284  66.5565 293.5559 15.06384179 30456","PERIAPSIS":"546.373","PERIOD":"95.593","GP_ID":"190076439","MEAN_MOTION":"15.06384179","REF_FRAME":"TEME","MEAN_ELEMENT_THEORY":"SGP4","OBJECT_TYPE":"PAYLOAD","EPOCH":"2021-11-19T11:20:55.656960","MEAN_MOTION_DDOT":"0.0000000000000","ECCENTRICITY":"0.00012840"}];
